ONEWEB-0589             
1 54655U 22166P   25033.82741317  .00000063  00000+0  12088-3 0  9998
2 54655  87.9338 343.5006 0001191  58.2256 301.8993 13.21823659105577
ONEWEB-0590             
1 54656U 22166Q   25033.85080589  .00000051  00000+0  92035-4 0  9997
2 54656  87.9335 343.4933 0002086  73.0549 287.0814 13.21866543105562
ONEWEB-0591             
1 54657U 22166R   25034.39357919  .00000049  00000+0  87636-4 0  9990
2 54657  87.9340 343.3894 0001833  75.0417 285.0920 13.21826792106120
ONEWEB-0592             
1 54658U 22166S   25034.39671861  .00000092  00000+0  19228-3 0  9995
2 54658  87.9337 343.3457 0001869  74.4482 285.6858 13.21825741106013
ONEWEB-0593             
1 54659U 22166T   25033.36060943 -.00000224  00000+0 -57310-3 0  9998
2 54659  87.9341 343.5848 0001628  75.8366 284.2949 13.21825613105512
ONEWEB-0594             
1 54660U 22166U   25034.28789549  .00000069  00000+0  13664-3 0  9991
2 54660  87.9343 343.4090 0001871  81.4049 278.7297 13.21824334106115
ONEWEB-0595             
1 54661U 22166V   25034.41722093  .00000087  00000+0  17998-3 0  9992
2 54661  87.9348 343.3644 0002004  81.3087 278.8274 13.21825303106118
ONEWEB-0596             
1 54662U 22166W   25034.39040907  .00000024  00000+0  27556-4 0  9990
2 54662  87.9353 343.3785 0001806  72.9850 287.1481 13.21826085106115
ONEWEB-0597             
1 54663U 22166X   25034.37148016  .00000026  00000+0  30670-4 0  9992
2 54663  87.9345 343.3864 0001600  77.6809 282.4504 13.21824004106116
ONEWEB-0600             
1 54664U 22166Y   25033.82426775  .00000062  00000+0  11784-3 0  9997
2 54664  87.9326 343.5229 0001683  81.0684 279.0640 13.21825055105540
ONEWEB-0601             
1 54665U 22166Z   25034.42196105  .00000022  00000+0  21241-4 0  9992
2 54665  87.9353 343.3842 0001770  66.3287 293.8033 13.21826554106278
ONEWEB-0602             
1 54666U 22166AA  25034.38726608  .00000051  00000+0  91434-4 0  9998
2 54666  87.9349 343.3931 0001594  80.1372 279.9942 13.21826646106126
ONEWEB-0603             
1 54667U 22166AB  25034.39197821  .00000081  00000+0  16501-3 0  9993
2 54667  87.9320 343.3705 0001899  67.8116 292.3220 13.21824568106041
ONEWEB-0604             
1 54668U 22166AC  25033.84949939  .00000036  00000+0  55249-4 0  9991
2 54668  87.9343 343.4681 0001503  78.6151 281.5152 13.21826211105479
ONEWEB-0605             
1 54669U 22166AD  25033.84320179 -.00000011  00000+0 -59277-4 0  9991
2 54669  87.9338 343.5016 0001718  54.9159 305.2136 13.21826345105542
ONEWEB-0606             
1 54670U 22166AE  25034.39514782  .00000067  00000+0  13169-3 0  9997
2 54670  87.9347 343.3949 0002104  80.2686 279.8686 13.21826843106139
ONEWEB-0607             
1 54671U 22166AF  25033.83216403  .00000064  00000+0  12359-3 0  9992
2 54671  87.9341 343.4770 0001666  77.2160 282.9160 13.21826395105573
ONEWEB-0608             
1 54672U 22166AG  25034.36833532  .00000115  00000+0  24745-3 0  9999
2 54672  87.9335 343.3820 0001562  67.3550 292.7749 13.21825504106114
ONEWEB-0610             
1 54673U 22166AH  25034.34941957  .00000066  00000+0  12845-3 0  9992
2 54673  87.9347 343.3921 0001633  65.2320 294.8984 13.21825979106021
ONEWEB-0611             
1 54674U 22166AJ  25034.41880471  .00000085  00000+0  17373-3 0  9996
2 54674  87.9345 343.3763 0002099  86.4552 273.6822 13.21824822106025
ONEWEB-0612             
1 54675U 22166AK  25033.82584914  .00000057  00000+0  10592-3 0  9999
2 54675  87.9338 343.4741 0001706  75.2419 284.8904 13.21826018105468
ONEWEB-0615             
1 54676U 22166AL  25034.41249292  .00000077  00000+0  15577-3 0  9993
2 54676  87.9345 343.3827 0001638  79.9980 280.1338 13.21824962106028
ONEWEB-0655             
1 54677U 22166AM  25033.78009383  .00000037  00000+0  58408-4 0  9995
2 54677  87.9346 343.5106 0001472  84.9305 275.1997 13.21819391105467
ONEWEB-0659             
1 54678U 22166AN  25033.41898354  .00000068  00000+0  13246-3 0  9994
2 54678  87.9340 343.5868 0001966  79.4494 280.6861 13.21825205105500
ONEWEB-0685             
1 54679U 22166AP  25033.42053815  .00000059  00000+0  11215-3 0  9995
2 54679  87.9341 343.5789 0001521  82.7868 277.3439 13.21824375105391
ONEWEB-0712             
1 54680U 22166AQ  25033.76000000  .00000042  00000+0  77449-4 0  9996
2 54680  87.9127 328.2900 0001454  99.3897 260.7399 13.16595286106348
ONEWEB-0714             
1 54681U 22166AR  25033.35116823  .00000088  00000+0  18123-3 0  9996
2 54681  87.9344 343.5828 0001628  81.1890 278.9428 13.21825657105509
ONEWEB-0532             
1 55140U 23004A   25033.22147738  .00000062  00000+0  12611-3 0  9992
2 55140  87.9076 105.4712 0001849  86.8835 273.2508 13.17648606101746
ONEWEB-0533             
1 55141U 23004B   25033.57033327 -.00000286  00000+0 -82951-3 0  9993
2 55141  87.8840  90.1243 0001792  98.5200 261.6132 13.12442961102529
ONEWEB-0541             
1 55142U 23004C   25033.66733873  .00000152  00000+0  39193-3 0  9997
2 55142  87.8897 120.6209 0001749 103.4634 256.6689 13.11420627100479
ONEWEB-0543             
1 55143U 23004D   25033.51750920  .00000005  00000+0 -18969-4 0  9991
2 55143  87.9054  74.9254 0001863 107.4850 252.6486 13.18684790103843
ONEWEB-0544             
1 55144U 23004E   25034.49757563 -.00000042  00000+0 -13913-3 0  9995
2 55144  87.9057  74.7172 0002069  95.8703 264.2665 13.18685009103976
ONEWEB-0560             
1 55145U 23004F   25034.56713800  .00000004  00000+0 -23315-4 0  9995
2 55145  87.9064  74.6683 0002221 101.6030 258.5351 13.18685315103990
ONEWEB-0565             
1 55146U 23004G   25033.57442011  .00000012  00000+0 -25370-5 0  9992
2 55146  87.9060  74.9340 0002461  91.1211 269.0203 13.18685678103850
ONEWEB-0567             
1 55147U 23004H   25034.17510694  .00000019  00000+0  14497-4 0  9996
2 55147  87.9058  74.7684 0002379  96.6029 263.5373 13.18685477103935
ONEWEB-0569             
1 55148U 23004J   25034.12011875  .00000256  00000+0  66594-3 0  9996
2 55148  87.8878  59.4277 0002843 102.2542 257.8905 13.13470835104666
ONEWEB-0570             
1 55149U 23004K   25034.54183773  .00000257  00000+0  62031-3 0  9993
2 55149  87.9068  74.6983 0002374  74.5726 285.5669 13.18682946103977
ONEWEB-0571             
1 55150U 23004L   25034.53551192  .00000137  00000+0  31506-3 0  9998
2 55150  87.9059  74.7053 0002877  87.3374 272.8087 13.18685728103982
ONEWEB-0572             
1 55151U 23004M   25034.23901969  .00000059  00000+0  11929-3 0  9997
2 55151  87.9064 105.2745 0002893 108.0714 252.0733 13.17649463101772
ONEWEB-0573             
1 55152U 23004N   25034.52919973 -.00000008  00000+0 -53656-4 0  9994
2 55152  87.9057  74.7178 0002775  83.5496 276.5952 13.18685704103975
ONEWEB-0588             
1 55153U 23004P   25033.53647364  .00000064  00000+0  12869-3 0  9997
2 55153  87.9065  74.8941 0002145  83.2595 276.8781 13.18684824103843
ONEWEB-0598             
1 55154U 23004Q   25034.25566952 -.00000378  00000+0 -11030-2 0  9999
2 55154  87.8895 120.5423 0002851 107.3085 252.8355 13.11415322100514
ONEWEB-0599             
1 55155U 23004R   25033.66865836  .00000033  00000+0  51048-4 0  9998
2 55155  87.9078 105.3860 0002075 106.2384 253.8976 13.17648384101707
ONEWEB-0614             
1 55156U 23004S   25033.64022076 -.00000466  00000+0 -13495-2 0  9992
2 55156  87.8892 120.6712 0001598  96.5405 263.5905 13.11413631100361
ONEWEB-0616             
1 55157U 23004T   25033.25521932  .00000021  00000+0  20681-4 0  9997
2 55157  87.9079 105.4667 0002222 134.0956 226.0359 13.17648992101863
ONEWEB-0617             
1 55158U 23004U   25034.31501248  .00000130  00000+0  33147-3 0  9995
2 55158  87.8891 120.5237 0001791  91.3250 268.8083 13.11416409100483
ONEWEB-0618             
1 55159U 23004V   25033.98488859  .00000719  00000+0  28488-3 0  9995
2 55159  86.9095  11.4145 0010831 253.9102 106.0898 14.27578667108267
ONEWEB-0619             
1 55160U 23004W   25033.66697906 -.00001171  00000+0 -30500-2 0  9999
2 55160  87.9074 105.3614 0001283 105.8763 254.2510 13.17639588101819
ONEWEB-0620             
1 55161U 23004X   25034.23363255  .00000404  00000+0  11049-2 0  9994
2 55161  87.8899 120.5566 0002029  92.8296 267.3064 13.11416578100436
ONEWEB-0621             
1 55162U 23004Y   25033.65037936 -.00000448  00000+0 -12993-2 0  9993
2 55162  87.8887 120.6331 0001558 105.2409 254.8891 13.11417778100337
ONEWEB-0622             
1 55163U 23004Z   25034.26583390 -.00000494  00000+0 -14302-2 0  9999
2 55163  87.8892 120.5311 0001753  79.8032 280.3294 13.11416067100416
ONEWEB-0623             
1 55164U 23004AA  25033.66189791 -.00000181  00000+0 -49914-3 0  9991
2 55164  87.9081 105.4183 0001427  78.0932 282.0360 13.17648826101808
ONEWEB-0624             
1 55165U 23004AB  25034.22254954  .00000362  00000+0  97105-3 0  9993
2 55165  87.8848  90.0047 0001769  95.1149 265.0181 13.12440752102600
ONEWEB-0625             
1 55166U 23004AC  25034.25927106  .00000019  00000+0  15110-4 0  9999
2 55166  87.9075 105.2967 0001906 106.6340 253.5001 13.17649879101875
ONEWEB-0626             
1 55167U 23004AD  25034.55288806 -.00000143  00000+0 -40180-3 0  9994
2 55167  87.9075 105.2368 0002326  97.6324 262.5072 13.17647405101915
ONEWEB-0627             
1 55168U 23004AE  25033.25016474 -.00000108  00000+0 -31014-3 0  9998
2 55168  87.9075 105.4989 0001688  84.6216 275.5108 13.17648636101745
ONEWEB-0628             
1 55169U 23004AF  25033.51695283  .00000350  00000+0  93627-3 0  9994
2 55169  87.8844  90.1260 0001414  80.1813 279.9475 13.12441976102493
ONEWEB-0629             
1 55170U 23004AG  25034.21286076  .00000022  00000+0  24033-4 0  9992
2 55170  87.9067 105.2774 0001483 107.9201 252.2093 13.17651008101871
ONEWEB-0631             
1 55171U 23004AH  25034.51654944  .00000048  00000+0  87832-4 0  9993
2 55171  87.9068  74.6160 0002329  85.6238 274.5160 13.18686717103952
